[{"OBJECT_NAME":"STARLINK-35480","OBJECT_ID":"2025-245J","EPOCH":"2026-03-09T19:56:40.297344","MEAN_MOTION":15.30202658,"ECCENTRICITY":0.00010085,"INCLINATION":53.1566,"RA_OF_ASC_NODE":283.5602,"ARG_OF_PERICENTER":139.7045,"MEAN_ANOMALY":220.4031,"EPHEMERIS_TYPE":0,"CLASSIFICATION_TYPE":"U","NORAD_CAT_ID":66242,"ELEMENT_SET_NO":999,"REV_AT_EPOCH":2127,"BSTAR":0.00080686258,"MEAN_MOTION_DOT":0.00023616,"MEAN_MOTION_DDOT":0},{"OBJECT_NAME":"ELECTRON KICK STAGE R\/B","OBJECT_ID":"2025-061J","EPOCH":"2026-03-09T21:50:35.145600","MEAN_MOTION":15.31602074,"ECCENTRICITY":0.00402669,"INCLINATION":97.5479,"RA_OF_ASC_NODE":52.3854,"ARG_OF_PERICENTER":150.2628,"MEAN_ANOMALY":210.0914,"EPHEMERIS_TYPE":0,"CLASSIFICATION_TYPE":"U","NORAD_CAT_ID":63359,"ELEMENT_SET_NO":999,"REV_AT_EPOCH":5306,"BSTAR":0.0006963674,"MEAN_MOTION_DOT":0.00021749,"MEAN_MOTION_DDOT":0}]
